[
    {
        "CCSDS_OMM_VERS": "3.0",
        "COMMENT": "GENERATED VIA SPACE-TRACK.ORG API",
        "CREATION_DATE": "2025-05-03T17:28:03",
        "ORIGINATOR": "18 SPCS",
        "OBJECT_NAME": "BEIDOU 3M9",
        "OBJECT_ID": "2018-062A",
        "CENTER_NAME": "EARTH",
        "REF_FRAME": "TEME",
        "TIME_SYSTEM": "UTC",
        "MEAN_ELEMENT_THEORY": "SGP4",
        "EPOCH": "2025-05-02T20:56:56.149440",
        "MEAN_MOTION": "1.86228699",
        "ECCENTRICITY": "0.00042040",
        "INCLINATION": "54.1006",
        "RA_OF_ASC_NODE": "196.2547",
        "ARG_OF_PERICENTER": "279.8611",
        "MEAN_ANOMALY": "80.1538",
        "EPHEMERIS_TYPE": "0",
        "CLASSIFICATION_TYPE": "U",
        "NORAD_CAT_ID": "43581",
        "ELEMENT_SET_NO": "999",
        "REV_AT_EPOCH": "4599",
        "BSTAR": "0.00000000000000",
        "MEAN_MOTION_DOT": "-0.00000013",
        "MEAN_MOTION_DDOT": "0.0000000000000",
        "SEMIMAJOR_AXIS": "27906.418",
        "PERIOD": "773.243",
        "APOAPSIS": "21540.015",
        "PERIAPSIS": "21516.552",
        "OBJECT_TYPE": "PAYLOAD",
        "RCS_SIZE": "LARGE",
        "COUNTRY_CODE": "PRC",
        "LAUNCH_DATE": "2018-07-29",
        "SITE": "XSC",
        "DECAY_DATE": null,
        "FILE": "4717971",
        "GP_ID": "286762062",
        "TLE_LINE0": "0 BEIDOU 3M9",
        "TLE_LINE1": "1 43581U 18062A   25122.87287210 -.00000013  00000-0  00000-0 0  9990",
        "TLE_LINE2": "2 43581  54.1006 196.2547 0004204 279.8611  80.1538  1.86228699 45990"
    }
]